[{"OBJECT_NAME":"TIANMU-1 20","OBJECT_ID":"2023-208B","EPOCH":"2026-03-09T21:50:45.859200","MEAN_MOTION":15.31029249,"ECCENTRICITY":0.00061925,"INCLINATION":97.4323,"RA_OF_ASC_NODE":185.4313,"ARG_OF_PERICENTER":324.1763,"MEAN_ANOMALY":35.9062,"EPHEMERIS_TYPE":0,"CLASSIFICATION_TYPE":"U","NORAD_CAT_ID":58661,"ELEMENT_SET_NO":999,"REV_AT_EPOCH":12222,"BSTAR":0.0003681641,"MEAN_MOTION_DOT":0.00010969,"MEAN_MOTION_DDOT":0},{"OBJECT_NAME":"STARLINK-32038","OBJECT_ID":"2024-132D","EPOCH":"2026-03-09T23:02:10.766976","MEAN_MOTION":15.30194721,"ECCENTRICITY":0.00012282,"INCLINATION":53.1612,"RA_OF_ASC_NODE":51.0404,"ARG_OF_PERICENTER":101.1582,"MEAN_ANOMALY":258.9557,"EPHEMERIS_TYPE":0,"CLASSIFICATION_TYPE":"U","NORAD_CAT_ID":60281,"ELEMENT_SET_NO":999,"REV_AT_EPOCH":9160,"BSTAR":-0.00011655364,"MEAN_MOTION_DOT":-3.809e-5,"MEAN_MOTION_DDOT":0}]
